start=new Date('2022-05-12T00:00:00.000Z').valueOf();
sats=[{"MEAN_MOTION":"15.06392055","MEAN_ANOMALY":"306.0791","CLASSIFICATION_TYPE":"U","NORAD_CAT_ID":"47770","MEAN_ELEMENT_THEORY":"SGP4","PERIAPSIS":"546.123","RCS_SIZE":"LARGE","REV_AT_EPOCH":"6710","RA_OF_ASC_NODE":"2.7771","ECCENTRICITY":"0.00016100","REF_FRAME":"TEME","DECAY_DATE":null,"EPHEMERIS_TYPE":"0","MEAN_MOTION_DDOT":"0.0000000000000","TIME_SYSTEM":"UTC","OBJECT_NAME":"STARLINK-2193","GP_ID":"203309690","APOAPSIS":"548.353","MEAN_MOTION_DOT":"-0.00001326","TLE_LINE2":"2 47770  53.0529   2.7771 0001610  54.0347 306.0791 15.06392055 67102","OBJECT_ID":"2021-017BA","CENTER_NAME":"EARTH","OBJECT_TYPE":"PAYLOAD","PERIOD":"95.593","SEMIMAJOR_AXIS":"6925.373","COUNTRY_CODE":"US","LAUNCH_DATE":"2021-03-04","FILE":"3441154","ARG_OF_PERICENTER":"54.0347","EPOCH":"2022-05-11T15:01:55.562592","BSTAR":"-0.00007012600000","TLE_LINE1":"1 47770U 21017BA  22131.62633753 -.00001326  00000-0 -70126-4 0  9994","INCLINATION":"53.0529","SITE":"AFETR","ELEMENT_SET_NO":"999"},{"ELEMENT_SET_NO":"999","INCLINATION":"53.0558","TLE_LINE1":"1 47771U 21017BB  22131.37200032  .00000168  00000-0  30190-4 0  9995","SITE":"AFETR","EPOCH":"2022-05-11T08:55:40.827648","ARG_OF_PERICENTER":"61.0288","BSTAR":"0.00003019000000","SEMIMAJOR_AXIS":"6925.358","COUNTRY_CODE":"US","FILE":"3440740","LAUNCH_DATE":"2021-03-04","OBJECT_TYPE":"PAYLOAD","PERIOD":"95.592","MEAN_MOTION_DOT":"0.00000168","OBJECT_ID":"2021-017BB","TLE_LINE2":"2 47771  53.0558   3.9224 0001599  61.0288 299.0861 15.06396797 67071","CENTER_NAME":"EARTH","GP_ID":"203274912","APOAPSIS":"548.331","OBJECT_NAME":"STARLINK-2194","MEAN_MOTION_DDOT":"0.0000000000000","TIME_SYSTEM":"UTC","DECAY_DATE":null,"EPHEMERIS_TYPE":"0","ECCENTRICITY":"0.00015990","REF_FRAME":"TEME","RCS_SIZE":"LARGE","REV_AT_EPOCH":"6707","RA_OF_ASC_NODE":"3.9224","PERIAPSIS":"546.116","MEAN_ELEMENT_THEORY":"SGP4","MEAN_MOTION":"15.06396797","MEAN_ANOMALY":"299.0861","CLASSIFICATION_TYPE":"U","NORAD_CAT_ID":"47771"},{"TIME_SYSTEM":"UTC","MEAN_MOTION_DDOT":"0.0000000000000","REF_FRAME":"TEME","ECCENTRICITY":"0.00016490","DECAY_DATE":null,"EPHEMERIS_TYPE":"0","MEAN_ELEMENT_THEORY":"SGP4","PERIAPSIS":"546.084","RA_OF_ASC_NODE":"16.8733","RCS_SIZE":"LARGE","REV_AT_EPOCH":"6690","MEAN_ANOMALY":"296.1485","MEAN_MOTION":"15.06395915","CLASSIFICATION_TYPE":"U","NORAD_CAT_ID":"47772","SITE":"AFETR","TLE_LINE1":"1 47772U 21017BC  22131.82583256 -.00000584  00000-0 -20291-4 0  9993","INCLINATION":"53.0565","ELEMENT_SET_NO":"999","LAUNCH_DATE":"2021-03-04","FILE":"3441154","SEMIMAJOR_AXIS":"6925.361","COUNTRY_CODE":"US","ARG_OF_PERICENTER":"63.9673","EPOCH":"2022-05-11T19:49:11.933184","BSTAR":"-0.00002029100000","MEAN_MOTION_DOT":"-0.00000584","TLE_LINE2":"2 47772  53.0565  16.8733 0001649  63.9673 296.1485 15.06395915 66905","CENTER_NAME":"EARTH","OBJECT_ID":"2021-017BC","PERIOD":"95.592","OBJECT_TYPE":"PAYLOAD","OBJECT_NAME":"STARLINK-2195","APOAPSIS":"548.368","GP_ID":"203309195"},{"INCLINATION":"53.0573","TLE_LINE1":"1 47773U 21017BD  22131.82215383  .00000840  00000-0  75290-4 0  9999","SITE":"AFETR","ELEMENT_SET_NO":"999","COUNTRY_CODE":"US","SEMIMAJOR_AXIS":"6925.389","FILE":"3441154","LAUNCH_DATE":"2021-03-04","BSTAR":"0.00007529000000","ARG_OF_PERICENTER":"59.9896","EPOCH":"2022-05-11T19:43:54.090912","OBJECT_ID":"2021-017BD","TLE_LINE2":"2 47773  53.0573  16.8976 0001702  59.9896 300.1261 15.06386848 66897","CENTER_NAME":"EARTH","MEAN_MOTION_DOT":"0.00000840","OBJECT_TYPE":"PAYLOAD","PERIOD":"95.593","OBJECT_NAME":"STARLINK-2196","GP_ID":"203309446","APOAPSIS":"548.433","MEAN_MOTION_DDOT":"0.0000000000000","TIME_SYSTEM":"UTC","ECCENTRICITY":"0.00017020","REF_FRAME":"TEME","EPHEMERIS_TYPE":"0","DECAY_DATE":null,"MEAN_ELEMENT_THEORY":"SGP4","PERIAPSIS":"546.075","REV_AT_EPOCH":"6689","RCS_SIZE":"LARGE","RA_OF_ASC_NODE":"16.8976","CLASSIFICATION_TYPE":"U","NORAD_CAT_ID":"47773","MEAN_MOTION":"15.06386848","MEAN_ANOMALY":"300.1261"},{"SITE":"AFETR","INCLINATION":"53.0575","TLE_LINE1":"1 47774U 21017BE  22131.08864720 -.00000356  00000-0 -49643-5 0  9991","ELEMENT_SET_NO":"999","LAUNCH_DATE":"2021-03-04","FILE":"3440740","COUNTRY_CODE":"US","SEMIMAJOR_AXIS":"6925.365","BSTAR":"-0.00000496430000","ARG_OF_PERICENTER":"61.4554","EPOCH":"2022-05-11T02:07:39.118080","TLE_LINE2":"2 47774  53.0575  20.1888 0001742  61.4554 298.6610 15.06394476 66797","CENTER_NAME":"EARTH","OBJECT_ID":"2021-017BE","MEAN_MOTION_DOT":"-0.00000356","PERIOD":"95.592","OBJECT_TYPE":"PAYLOAD","OBJECT_NAME":"STARLINK-2197","APOAPSIS":"548.437","GP_ID":"203276651","TIME_SYSTEM":"UTC","MEAN_MOTION_DDOT":"0.0000000000000","REF_FRAME":"TEME","ECCENTRICITY":"0.00017420","EPHEMERIS_TYPE":"0","DECAY_DATE":null,"PERIAPSIS":"546.024","MEAN_ELEMENT_THEORY":"SGP4","RA_OF_ASC_NODE":"20.1888","REV_AT_EPOCH":"6679","RCS_SIZE":"LARGE","CLASSIFICATION_TYPE":"U","NORAD_CAT_ID":"47774","MEAN_ANOMALY":"298.6610","MEAN_MOTION":"15.06394476"},{"MEAN_ANOMALY":"288.9408","MEAN_MOTION":"15.06391253","NORAD_CAT_ID":"47775","CLASSIFICATION_TYPE":"U","PERIAPSIS":"546.139","MEAN_ELEMENT_THEORY":"SGP4","RCS_SIZE":"LARGE","REV_AT_EPOCH":"6684","RA_OF_ASC_NODE":"20.1322","ECCENTRICITY":"0.00015900","REF_FRAME":"TEME","DECAY_DATE":null,"EPHEMERIS_TYPE":"0","MEAN_MOTION_DDOT":"0.0000000000000","TIME_SYSTEM":"UTC","OBJECT_NAME":"STARLINK-2198","GP_ID":"203275411","APOAPSIS":"548.342","MEAN_MOTION_DOT":"0.00000405","CENTER_NAME":"EARTH","TLE_LINE2":"2 47775  53.0558  20.1322 0001590  71.1754 288.9408 15.06391253 66846","OBJECT_ID":"2021-017BF","OBJECT_TYPE":"PAYLOAD","PERIOD":"95.593","SEMIMAJOR_AXIS":"6925.375","COUNTRY_CODE":"US","FILE":"3440740","LAUNCH_DATE":"2021-03-04","EPOCH":"2022-05-11T02:23:34.347840","ARG_OF_PERICENTER":"71.1754","BSTAR":"0.00004611100000","INCLINATION":"53.0558","TLE_LINE1":"1 47775U 21017BF  22131.09970310  .00000405  00000-0  46111-4 0  9995","SITE":"AFETR","ELEMENT_SET_NO":"999"},{"NORAD_CAT_ID":"47776","CLASSIFICATION_TYPE":"U","MEAN_MOTION":"15.06402168","MEAN_ANOMALY":"301.5543","RA_OF_ASC_NODE":"6.7377","REV_AT_EPOCH":"6706","RCS_SIZE":"LARGE","MEAN_ELEMENT_THEORY":"SGP4","PERIAPSIS":"546.023","EPHEMERIS_TYPE":"0","DECAY_DATE":null,"REF_FRAME":"TEME","ECCENTRICITY":"0.00017090","TIME_SYSTEM":"UTC","MEAN_MOTION_DDOT":"0.0000000000000","APOAPSIS":"548.390","GP_ID":"203308696","OBJECT_NAME":"STARLINK-2209","PERIOD":"95.592","OBJECT_TYPE":"PAYLOAD","TLE_LINE2":"2 47776  53.0562   6.7377 0001709  58.5613 301.5543 15.06402168 67062","OBJECT_ID":"2021-017BG","CENTER_NAME":"EARTH","MEAN_MOTION_DOT":"0.00001049","BSTAR":"0.00008929500000","EPOCH":"2022-05-11T20:32:58.857792","ARG_OF_PERICENTER":"58.5613","FILE":"3441154","LAUNCH_DATE":"2021-03-04","COUNTRY_CODE":"US","SEMIMAJOR_AXIS":"6925.342","ELEMENT_SET_NO":"999","SITE":"AFETR","INCLINATION":"53.0562","TLE_LINE1":"1 47776U 21017BG  22131.85623678  .00001049  00000-0  89295-4 0  9997"},{"PERIAPSIS":"546.063","MEAN_ELEMENT_THEORY":"SGP4","RA_OF_ASC_NODE":"8.8167","REV_AT_EPOCH":"6699","RCS_SIZE":"LARGE","NORAD_CAT_ID":"47777","CLASSIFICATION_TYPE":"U","MEAN_ANOMALY":"307.6129","MEAN_MOTION":"15.06397873","TIME_SYSTEM":"UTC","MEAN_MOTION_DDOT":"0.0000000000000","REF_FRAME":"TEME","ECCENTRICITY":"0.00016710","EPHEMERIS_TYPE":"0","DECAY_DATE":null,"CENTER_NAME":"EARTH","TLE_LINE2":"2 47777  53.0565   8.8167 0001671  52.5012 307.6129 15.06397873 66995","OBJECT_ID":"2021-017BH","MEAN_MOTION_DOT":"-0.00001120","PERIOD":"95.592","OBJECT_TYPE":"PAYLOAD","OBJECT_NAME":"STARLINK-2210","APOAPSIS":"548.377","GP_ID":"203276412","SITE":"AFETR","TLE_LINE1":"1 47777U 21017BH  22131.39549888 -.00001120  00000-0 -56302-4 0  9992","INCLINATION":"53.0565","ELEMENT_SET_NO":"999","LAUNCH_DATE":"2021-03-04","FILE":"3440740","COUNTRY_CODE":"US","SEMIMAJOR_AXIS":"6925.355","BSTAR":"-0.00005630200000","ARG_OF_PERICENTER":"52.5012","EPOCH":"2022-05-11T09:29:31.103232"},{"ECCENTRICITY":"0.00017030","REF_FRAME":"TEME","DECAY_DATE":null,"EPHEMERIS_TYPE":"0","MEAN_MOTION_DDOT":"0.0000000000000","TIME_SYSTEM":"UTC","MEAN_ANOMALY":"293.9763","MEAN_MOTION":"15.06405382","NORAD_CAT_ID":"47778","CLASSIFICATION_TYPE":"U","MEAN_ELEMENT_THEORY":"SGP4","PERIAPSIS":"546.018","RCS_SIZE":"LARGE","REV_AT_EPOCH":"6702","RA_OF_ASC_NODE":"7.7587","SEMIMAJOR_AXIS":"6925.332","COUNTRY_CODE":"US","FILE":"3441154","LAUNCH_DATE":"2021-03-04","EPOCH":"2022-05-11T15:03:54.738432","ARG_OF_PERICENTER":"66.1404","BSTAR":"-0.00030133000000","TLE_LINE1":"1 47778U 21017BJ  22131.62771688 -.00004768  00000-0 -30133-3 0  9998","INCLINATION":"53.0554","SITE":"AFETR","ELEMENT_SET_NO":"999","OBJECT_NAME":"STARLINK-2211","GP_ID":"203309691","APOAPSIS":"548.376","MEAN_MOTION_DOT":"-0.00004768","TLE_LINE2":"2 47778  53.0554   7.7587 0001703  66.1404 293.9763 15.06405382 67021","CENTER_NAME":"EARTH","OBJECT_ID":"2021-017BJ","OBJECT_TYPE":"PAYLOAD","PERIOD":"95.592"},{"TLE_LINE2":"2 47779  53.0571 358.4057 0002124 112.9286 247.1930 15.13649914 67166","CENTER_NAME":"EARTH","OBJECT_ID":"2021-017BK","MEAN_MOTION_DOT":"-0.00020775","OBJECT_TYPE":"PAYLOAD","PERIOD":"95.134","OBJECT_NAME":"STARLINK-2212","GP_ID":"203308447","APOAPSIS":"526.549","INCLINATION":"53.0571","TLE_LINE1":"1 47779U 21017BK  22131.60271504 -.00020775  00000-0 -11288-2 0  9994","SITE":"AFETR","ELEMENT_SET_NO":"999","COUNTRY_CODE":"US","SEMIMAJOR_AXIS":"6903.217","FILE":"3441154","LAUNCH_DATE":"2021-03-04","BSTAR":"-0.00112880000000","EPOCH":"2022-05-11T14:27:54.579456","ARG_OF_PERICENTER":"112.9286","MEAN_ELEMENT_THEORY":"SGP4","PERIAPSIS":"523.616","REV_AT_EPOCH":"6716","RCS_SIZE":"LARGE","RA_OF_ASC_NODE":"358.4057","NORAD_CAT_ID":"47779","CLASSIFICATION_TYPE":"U","MEAN_ANOMALY":"247.1930","MEAN_MOTION":"15.13649914","MEAN_MOTION_DDOT":"0.0000000000000","TIME_SYSTEM":"UTC","ECCENTRICITY":"0.00021240","REF_FRAME":"TEME","EPHEMERIS_TYPE":"0","DECAY_DATE":null}];
